[{"OBJECT_NAME":"GJZ 05","OBJECT_ID":"2024-238E","EPOCH":"2026-03-09T22:58:46.488864","MEAN_MOTION":13.75189396,"ECCENTRICITY":0.0008393,"INCLINATION":59.9108,"RA_OF_ASC_NODE":211.3299,"ARG_OF_PERICENTER":266.3765,"MEAN_ANOMALY":93.6283,"EPHEMERIS_TYPE":0,"CLASSIFICATION_TYPE":"U","NORAD_CAT_ID":62294,"ELEMENT_SET_NO":999,"REV_AT_EPOCH":6226,"BSTAR":9.3425993e-5,"MEAN_MOTION_DOT":-2.9e-7,"MEAN_MOTION_DDOT":0},{"OBJECT_NAME":"FENGYUN 1C DEB","OBJECT_ID":"1999-025ADT","EPOCH":"2026-03-08T04:42:29.732544","MEAN_MOTION":13.34454447,"ECCENTRICITY":0.0375,"INCLINATION":99.8244,"RA_OF_ASC_NODE":160.7771,"ARG_OF_PERICENTER":289.9182,"MEAN_ANOMALY":66.1915,"EPHEMERIS_TYPE":0,"CLASSIFICATION_TYPE":"U","NORAD_CAT_ID":30404,"ELEMENT_SET_NO":999,"REV_AT_EPOCH":59176,"BSTAR":0.0013518455,"MEAN_MOTION_DOT":9.61e-6,"MEAN_MOTION_DDOT":0}]
